start=new Date('2022-07-31T00:00:00.000Z').valueOf();
sats=[{"TLE_LINE1":"1 47734U 21017N   22211.89272995  .00001100  00000-0  92735-4 0  9997","ECCENTRICITY":"0.00012050","DECAY_DATE":null,"SEMIMAJOR_AXIS":"6925.356","NORAD_CAT_ID":"47734","EPOCH":"2022-07-30T21:25:31.867680","BSTAR":"0.00009273500000","OBJECT_ID":"2021-017N","MEAN_ANOMALY":"267.2555","INCLINATION":"53.0563","SITE":"AFETR","RCS_SIZE":"LARGE","REF_FRAME":"TEME","ARG_OF_PERICENTER":"92.8572","PERIAPSIS":"546.387","TIME_SYSTEM":"UTC","FILE":"3525638","GP_ID":"209227459","MEAN_MOTION":"15.06397544","REV_AT_EPOCH":"7912","PERIOD":"95.592","MEAN_MOTION_DOT":"0.00001100","MEAN_ELEMENT_THEORY":"SGP4","RA_OF_ASC_NODE":"7.4443","APOAPSIS":"548.056","LAUNCH_DATE":"2021-03-04","CLASSIFICATION_TYPE":"U","ELEMENT_SET_NO":"999","MEAN_MOTION_DDOT":"0.0000000000000","COUNTRY_CODE":"US","CENTER_NAME":"EARTH","EPHEMERIS_TYPE":"0","OBJECT_NAME":"STARLINK-2144","OBJECT_TYPE":"PAYLOAD","TLE_LINE2":"2 47734  53.0563   7.4443 0001205  92.8572 267.2555 15.06397544 79127"},{"MEAN_ANOMALY":"298.3183","INCLINATION":"53.0545","SITE":"AFETR","RCS_SIZE":"LARGE","REF_FRAME":"TEME","TLE_LINE1":"1 47735U 21017P   22211.64349156 -.00001723  00000-0 -96785-4 0  9997","ECCENTRICITY":"0.00013560","DECAY_DATE":null,"NORAD_CAT_ID":"47735","SEMIMAJOR_AXIS":"6925.347","OBJECT_ID":"2021-017P","BSTAR":"-0.00009678500000","EPOCH":"2022-07-30T15:26:37.670784","COUNTRY_CODE":"US","MEAN_MOTION_DDOT":"0.0000000000000","CENTER_NAME":"EARTH","OBJECT_NAME":"STARLINK-2146","EPHEMERIS_TYPE":"0","OBJECT_TYPE":"PAYLOAD","TLE_LINE2":"2 47735  53.0545 293.7323 0001356  61.7943 298.3183 15.06400624 80116","PERIAPSIS":"546.273","ARG_OF_PERICENTER":"61.7943","TIME_SYSTEM":"UTC","FILE":"3525638","GP_ID":"209226207","REV_AT_EPOCH":"8011","MEAN_MOTION":"15.06400624","MEAN_ELEMENT_THEORY":"SGP4","PERIOD":"95.592","MEAN_MOTION_DOT":"-0.00001723","APOAPSIS":"548.151","RA_OF_ASC_NODE":"293.7323","CLASSIFICATION_TYPE":"U","LAUNCH_DATE":"2021-03-04","ELEMENT_SET_NO":"999"},{"OBJECT_TYPE":"PAYLOAD","OBJECT_NAME":"STARLINK-2147","EPHEMERIS_TYPE":"0","TLE_LINE2":"2 47736  53.0559 358.7842 0001227  77.3082 282.8044 15.06392383 79253","MEAN_MOTION_DDOT":"0.0000000000000","COUNTRY_CODE":"US","CENTER_NAME":"EARTH","APOAPSIS":"548.087","RA_OF_ASC_NODE":"358.7842","ELEMENT_SET_NO":"999","CLASSIFICATION_TYPE":"U","LAUNCH_DATE":"2021-03-04","TIME_SYSTEM":"UTC","PERIAPSIS":"546.387","ARG_OF_PERICENTER":"77.3082","PERIOD":"95.593","MEAN_MOTION_DOT":"-0.00000377","MEAN_ELEMENT_THEORY":"SGP4","GP_ID":"209226457","MEAN_MOTION":"15.06392383","FILE":"3525638","REV_AT_EPOCH":"7925","REF_FRAME":"TEME","INCLINATION":"53.0559","MEAN_ANOMALY":"282.8044","RCS_SIZE":"LARGE","SITE":"AFETR","ECCENTRICITY":"0.00012270","DECAY_DATE":null,"TLE_LINE1":"1 47736U 21017Q   22211.59508959 -.00000377  00000-0 -64007-5 0  9997","OBJECT_ID":"2021-017Q","BSTAR":"-0.00000640070000","EPOCH":"2022-07-30T14:16:55.740576","NORAD_CAT_ID":"47736","SEMIMAJOR_AXIS":"6925.372"},{"PERIAPSIS":"473.341","ARG_OF_PERICENTER":"51.3503","TIME_SYSTEM":"UTC","GP_ID":"209226708","FILE":"3525638","MEAN_MOTION":"15.30383649","REV_AT_EPOCH":"8053","MEAN_MOTION_DOT":"0.00003885","PERIOD":"94.094","MEAN_ELEMENT_THEORY":"SGP4","APOAPSIS":"475.997","RA_OF_ASC_NODE":"267.5866","LAUNCH_DATE":"2021-03-04","CLASSIFICATION_TYPE":"U","ELEMENT_SET_NO":"999","COUNTRY_CODE":"US","MEAN_MOTION_DDOT":"0.0000000000000","CENTER_NAME":"EARTH","OBJECT_NAME":"STARLINK-2148","EPHEMERIS_TYPE":"0","OBJECT_TYPE":"PAYLOAD","TLE_LINE2":"2 47737  53.0505 267.5866 0001938  51.3503 308.7669 15.30383649 80533","TLE_LINE1":"1 47737U 21017R   22211.58065864  .00003885  00000-0  14243-3 0  9990","DECAY_DATE":null,"ECCENTRICITY":"0.00019380","NORAD_CAT_ID":"47737","SEMIMAJOR_AXIS":"6852.804","OBJECT_ID":"2021-017R","EPOCH":"2022-07-30T13:56:08.906496","BSTAR":"0.00014243000000","MEAN_ANOMALY":"308.7669","INCLINATION":"53.0505","SITE":"AFETR","RCS_SIZE":"LARGE","REF_FRAME":"TEME"},{"TLE_LINE2":"2 47738  53.0555 357.9656 0001383  72.6874 287.4266 15.06391184 79283","OBJECT_NAME":"STARLINK-2149","EPHEMERIS_TYPE":"0","OBJECT_TYPE":"PAYLOAD","CENTER_NAME":"EARTH","COUNTRY_CODE":"US","MEAN_MOTION_DDOT":"0.0000000000000","CLASSIFICATION_TYPE":"U","LAUNCH_DATE":"2021-03-04","ELEMENT_SET_NO":"999","APOAPSIS":"548.198","RA_OF_ASC_NODE":"357.9656","GP_ID":"209226959","REV_AT_EPOCH":"7928","FILE":"3525638","MEAN_MOTION":"15.06391184","PERIOD":"95.593","MEAN_ELEMENT_THEORY":"SGP4","MEAN_MOTION_DOT":"0.00000241","PERIAPSIS":"546.283","ARG_OF_PERICENTER":"72.6874","TIME_SYSTEM":"UTC","REF_FRAME":"TEME","RCS_SIZE":"LARGE","SITE":"AFETR","MEAN_ANOMALY":"287.4266","INCLINATION":"53.0555","NORAD_CAT_ID":"47738","SEMIMAJOR_AXIS":"6925.376","OBJECT_ID":"2021-017S","BSTAR":"0.00003511300000","EPOCH":"2022-07-30T20:01:58.976832","TLE_LINE1":"1 47738U 21017S   22211.83471038  .00000241  00000-0  35113-4 0  9996","ECCENTRICITY":"0.00013830","DECAY_DATE":null},{"SITE":"AFETR","RCS_SIZE":"LARGE","MEAN_ANOMALY":"271.4106","INCLINATION":"53.0555","REF_FRAME":"TEME","NORAD_CAT_ID":"47739","SEMIMAJOR_AXIS":"6925.359","OBJECT_ID":"2021-017T","EPOCH":"2022-07-30T20:33:07.036416","BSTAR":"0.00006956700000","TLE_LINE1":"1 47739U 21017T   22211.85633144  .00000755  00000-0  69567-4 0  9997","DECAY_DATE":null,"ECCENTRICITY":"0.00015070","CENTER_NAME":"EARTH","MEAN_MOTION_DDOT":"0.0000000000000","COUNTRY_CODE":"US","TLE_LINE2":"2 47739  53.0555  22.6171 0001507  88.7056 271.4106 15.06396469 78949","OBJECT_NAME":"STARLINK-2150","EPHEMERIS_TYPE":"0","OBJECT_TYPE":"PAYLOAD","FILE":"3525638","GP_ID":"209225707","REV_AT_EPOCH":"7894","MEAN_MOTION":"15.06396469","PERIOD":"95.592","MEAN_ELEMENT_THEORY":"SGP4","MEAN_MOTION_DOT":"0.00000755","PERIAPSIS":"546.181","ARG_OF_PERICENTER":"88.7056","TIME_SYSTEM":"UTC","CLASSIFICATION_TYPE":"U","LAUNCH_DATE":"2021-03-04","ELEMENT_SET_NO":"999","APOAPSIS":"548.268","RA_OF_ASC_NODE":"22.6171"},{"COUNTRY_CODE":"US","MEAN_MOTION_DDOT":"0.0000000000000","CENTER_NAME":"EARTH","EPHEMERIS_TYPE":"0","OBJECT_NAME":"STARLINK-2152","OBJECT_TYPE":"PAYLOAD","TLE_LINE2":"2 47740  53.0566   7.6935 0001513  80.2623 279.8537 15.06391308 79148","ARG_OF_PERICENTER":"80.2623","PERIAPSIS":"546.192","TIME_SYSTEM":"UTC","GP_ID":"209225957","FILE":"3525638","REV_AT_EPOCH":"7914","MEAN_MOTION":"15.06391308","MEAN_ELEMENT_THEORY":"SGP4","PERIOD":"95.593","MEAN_MOTION_DOT":"-0.00000108","RA_OF_ASC_NODE":"7.6935","APOAPSIS":"548.288","CLASSIFICATION_TYPE":"U","LAUNCH_DATE":"2021-03-04","ELEMENT_SET_NO":"999","MEAN_ANOMALY":"279.8537","INCLINATION":"53.0566","RCS_SIZE":"LARGE","SITE":"AFETR","REF_FRAME":"TEME","TLE_LINE1":"1 47740U 21017U   22211.83743998 -.00000108  00000-0  11676-4 0  9997","DECAY_DATE":null,"ECCENTRICITY":"0.00015130","SEMIMAJOR_AXIS":"6925.375","NORAD_CAT_ID":"47740","BSTAR":"0.00001167600000","EPOCH":"2022-07-30T20:05:54.814272","OBJECT_ID":"2021-017U"},{"ELEMENT_SET_NO":"999","LAUNCH_DATE":"2021-03-04","CLASSIFICATION_TYPE":"U","APOAPSIS":"548.173","RA_OF_ASC_NODE":"8.2256","MEAN_ELEMENT_THEORY":"SGP4","PERIOD":"95.592","MEAN_MOTION_DOT":"0.00000922","GP_ID":"209227209","MEAN_MOTION":"15.06395840","FILE":"3525638","REV_AT_EPOCH":"7908","TIME_SYSTEM":"UTC","PERIAPSIS":"546.280","ARG_OF_PERICENTER":"88.6248","TLE_LINE2":"2 47741  53.0564   8.2256 0001367  88.6248 271.4897 15.06395840 79087","OBJECT_TYPE":"PAYLOAD","OBJECT_NAME":"STARLINK-2154","EPHEMERIS_TYPE":"0","CENTER_NAME":"EARTH","COUNTRY_CODE":"US","MEAN_MOTION_DDOT":"0.0000000000000","OBJECT_ID":"2021-017V","EPOCH":"2022-07-30T17:16:03.930816","BSTAR":"0.00008078200000","NORAD_CAT_ID":"47741","SEMIMAJOR_AXIS":"6925.361","ECCENTRICITY":"0.00013670","DECAY_DATE":null,"TLE_LINE1":"1 47741U 21017V   22211.71948994  .00000922  00000-0  80782-4 0  9995","REF_FRAME":"TEME","RCS_SIZE":"LARGE","SITE":"AFETR","INCLINATION":"53.0564","MEAN_ANOMALY":"271.4897"},{"PERIOD":"95.593","MEAN_ELEMENT_THEORY":"SGP4","MEAN_MOTION_DOT":"-0.00000243","GP_ID":"209227460","MEAN_MOTION":"15.06386244","FILE":"3525638","REV_AT_EPOCH":"7928","TIME_SYSTEM":"UTC","PERIAPSIS":"546.293","ARG_OF_PERICENTER":"88.0773","ELEMENT_SET_NO":"999","LAUNCH_DATE":"2021-03-04","CLASSIFICATION_TYPE":"U","APOAPSIS":"548.218","RA_OF_ASC_NODE":"357.8693","CENTER_NAME":"EARTH","MEAN_MOTION_DDOT":"0.0000000000000","COUNTRY_CODE":"US","TLE_LINE2":"2 47742  53.0561 357.8693 0001390  88.0773 272.0375 15.06386244 79284","OBJECT_TYPE":"PAYLOAD","OBJECT_NAME":"STARLINK-2156","EPHEMERIS_TYPE":"0","OBJECT_ID":"2021-017W","BSTAR":"0.00000255760000","EPOCH":"2022-07-30T19:08:51.972864","NORAD_CAT_ID":"47742","SEMIMAJOR_AXIS":"6925.391","DECAY_DATE":null,"ECCENTRICITY":"0.00013900","TLE_LINE1":"1 47742U 21017W   22211.79782376 -.00000243  00000-0  25576-5 0  9992","RCS_SIZE":"LARGE","SITE":"AFETR","INCLINATION":"53.0561","MEAN_ANOMALY":"272.0375","REF_FRAME":"TEME"},{"TLE_LINE2":"2 47743  53.0550 358.3596 0001279  81.6314 278.4820 15.06402322 79244","OBJECT_TYPE":"PAYLOAD","OBJECT_NAME":"STARLINK-2157","EPHEMERIS_TYPE":"0","CENTER_NAME":"EARTH","COUNTRY_CODE":"US","MEAN_MOTION_DDOT":"0.0000000000000","ELEMENT_SET_NO":"999","LAUNCH_DATE":"2021-03-04","CLASSIFICATION_TYPE":"U","APOAPSIS":"548.092","RA_OF_ASC_NODE":"358.3596","MEAN_ELEMENT_THEORY":"SGP4","PERIOD":"95.592","MEAN_MOTION_DOT":"0.00001056","REV_AT_EPOCH":"7924","GP_ID":"209226208","FILE":"3525638","MEAN_MOTION":"15.06402322","TIME_SYSTEM":"UTC","PERIAPSIS":"546.321","ARG_OF_PERICENTER":"81.6314","REF_FRAME":"TEME","SITE":"AFETR","RCS_SIZE":"LARGE","INCLINATION":"53.0550","MEAN_ANOMALY":"278.4820","OBJECT_ID":"2021-017X","BSTAR":"0.00008973600000","EPOCH":"2022-07-30T16:34:55.077600","NORAD_CAT_ID":"47743","SEMIMAJOR_AXIS":"6925.341","ECCENTRICITY":"0.00012790","DECAY_DATE":null,"TLE_LINE1":"1 47743U 21017X   22211.69091525  .00001056  00000-0  89736-4 0  9990"}];
